GLOBALSTAR M035 [-]     
1 25851U 99037A   23312.34776262 -.00000096  00000+0 -12183-2 0  9990
2 25851  51.9951 283.6537 0013747 108.5707  41.2400 11.04527267 31412
GLOBALSTAR M032 [-]     
1 25852U 99037B   23311.84798702 -.00000061  00000+0  19380-3 0  9996
2 25852  51.9914 150.4928 0007054 257.0636 102.9376 11.19045349 69030
GLOBALSTAR M051 [-]     
1 25853U 99037C   23312.45447094 -.00000075  00000+0 -76797-4 0  9992
2 25853  51.9831  16.2948 0001460 233.9440 126.1236 11.42192672 65342
GLOBALSTAR M030 [-]     
1 25854U 99037D   23312.11469377 -.00000131  00000+0 -11972-2 0  9999
2 25854  51.9871 220.5452 0005324  68.6950 291.4435 11.55086831 82203
GLOBALSTAR M048 [-]     
1 25872U 99041A   23312.25968090 -.00000047  00000+0  63305-3 0  9998
2 25872  51.9372 289.1012 0012931 249.9848 211.6548 11.33841007 58408
GLOBALSTAR M026 [-]     
1 25873U 99041B   23312.58973161 -.00000129  00000+0 -24035-2 0  9998
2 25873  52.0034  47.2560 0001297  29.6234  73.7810 11.06828477 83539
GLOBALSTAR M043 [-]     
1 25874U 99041C   23312.50316411 -.00000052  00000+0  46987-3 0  9995
2 25874  51.9436  12.7853 0013289  33.0238  72.0974 11.25675592 56805
GLOBALSTAR M028 [-]     
1 25875U 99041D   23312.50039646 -.00000037  00000+0  40709-3 0  9997
2 25875  51.9601 142.3998 0062620 236.9385 122.5452 12.50544160116770
